     2.100          NAVIGATION                              RINEX VERSION / TYPE
fic2rin                                 07/30/2013 00:20:10 PGM / RUN BY / DATE
                                                            END OF HEADER
20 13  7 29 20  0  0.0  .112383626401D-03  .238742359215D-11  .000000000000D+00
     .990000000000D+02  .345937500000D+02  .519343061295D-08 -.131434574736D+01
     .172294676304D-05  .539831176866D-02  .884756445885D-05  .515370681953D+04
     .158400000000D+06  .502914190292D-07 -.160066029697D+01  .175088644028D-06
     .927455552018D+00  .191687500000D+03  .129133988741D+01 -.833749014707D-08
    -.234295473633D-09  .100000000000D+01  .175100000000D+04  .000000000000D+00
     .240000000000D+01  .000000000000D+00 -.791624188423D-08  .990000000000D+02
     .151206000000D+06  .400000000000D+01
21 13  7 29 20  0  0.0 -.310896430165D-03 -.193267624127D-11  .000000000000D+00
     .560000000000D+02 -.212187500000D+02  .550308636849D-08 -.776989965665D+00
    -.966712832451D-06  .204857630888D-01  .753626227379D-05  .515365011787D+04
     .158400000000D+06 -.223517417908D-07 -.259462977476D+01  .404193997383D-06
     .931848130324D+00  .218750000000D+03 -.211632273272D+01 -.872500628868D-08
    -.296440919383D-09  .100000000000D+01  .175100000000D+04  .000000000000D+00
     .240000000000D+01  .000000000000D+00 -.111758708954D-07  .560000000000D+02
     .151206000000D+06  .400000000000D+01
22 13  7 29 20  0  0.0  .177722424269D-03  .147792889038D-11  .000000000000D+00
     .700000000000D+01  .395625000000D+02  .509664086698D-08 -.238964914451D+01
     .204332172871D-05  .680378149264D-02  .982545316219D-05  .515365113449D+04
     .158400000000D+06  .130385160446D-07 -.154478285502D+01 -.838190317154D-07
     .924406611303D+00  .170656250000D+03 -.203635193995D+01 -.813748181592D-08
    -.138220043134D-09  .100000000000D+01  .175100000000D+04  .000000000000D+00
     .240000000000D+01  .000000000000D+00 -.172294676304D-07  .700000000000D+01
     .151206000000D+06  .400000000000D+01
23 13  7 29 20  0  0.0  .623865053058D-04 -.352429196937D-11  .000000000000D+00
     .490000000000D+02  .575937500000D+02  .461054919074D-08  .173194214554D+01
     .311061739922D-05  .883270404302D-02  .581145286560D-05  .515368328285D+04
     .158400000000D+06 -.102445483208D-06 -.486564979064D+00  .121071934700D-06
     .955171835564D+00  .266375000000D+03 -.285125962309D+01 -.823498587736D-08
    -.106790162525D-09  .100000000000D+01  .175100000000D+04  .000000000000D+00
     .240000000000D+01  .000000000000D+00 -.200234353542D-07  .490000000000D+02
     .151206000000D+06  .400000000000D+01
24 13  7 29 20  0  0.0 -.108829699457D-04 -.795807864051D-12  .000000000000D+00
     .250000000000D+02 -.330937500000D+02  .459769151231D-08  .922894820057D+00
    -.184774398804D-05  .951635534875D-03  .531040132046D-05  .515367055893D+04
     .158400000000D+06  .149011611938D-07  .539648392304D+00  .428408384323D-07
     .958856561939D+00  .277437500000D+03  .344797940184D+00 -.828105922507D-08
    -.121790787361D-09  .100000000000D+01  .175100000000D+04  .000000000000D+00
     .240000000000D+01  .000000000000D+00  .325962901115D-08  .250000000000D+02
     .151206000000D+06  .400000000000D+01
25 13  7 29 20  0  0.0  .128765590489D-03  .488853402203D-11  .000000000000D+00
     .400000000000D+02 -.413125000000D+02  .420338937375D-08 -.113048798939D+01
    -.203773379326D-05  .275884079747D-02  .851973891258D-05  .515375059319D+04
     .158400000000D+06  .614672899246D-07  .158988639539D+01  .242143869400D-07
     .973359083284D+00  .222093750000D+03  .741044171053D+00 -.790997233924D-08
     .238581366443D-09  .100000000000D+01  .175100000000D+04  .000000000000D+00
     .240000000000D+01  .000000000000D+00  .558793544769D-08  .400000000000D+02
     .151206000000D+06  .400000000000D+01
27 13  7 29 20  0  0.0 -.171237625182D-04 -.488853402203D-11  .000000000000D+00
     .710000000000D+02 -.141875000000D+02  .477448459073D-08  .220704182454D+01
    -.679865479469D-06  .328352325596D-03  .689551234245D-05  .515366163063D+04
     .158400000000D+06 -.558793544769D-07  .263988557125D+01 -.223517417908D-07
     .960775411604D+00  .246187500000D+03  .871484186346D+00 -.810355183117D-08
     .277868717205D-09  .100000000000D+01  .175100000000D+04  .000000000000D+00
     .340000000000D+01  .000000000000D+00  .186264514923D-08  .710000000000D+02
     .151206000000D+06  .400000000000D+01
28 13  7 29 20  0  0.0  .279819592834D-03  .318323145621D-11  .000000000000D+00
     .101000000000D+03 -.256875000000D+02  .388730477899D-08 -.252045385212D+01
    -.142119824886D-05  .186322199879D-01  .819191336632D-05  .515365052032D+04
     .158400000000D+06  .221654772758D-06  .165347027765D+01  .502914190292D-07
     .983682872763D+00  .227250000000D+03 -.176599866484D+01 -.744888170439D-08
     .342871424828D-09  .100000000000D+01  .175100000000D+04  .000000000000D+00
     .340000000000D+01  .000000000000D+00 -.107102096081D-07  .101000000000D+03
     .151206000000D+06  .400000000000D+01
29 13  7 29 20  0  0.0  .457776710391D-03  .329691829393D-11  .000000000000D+00
     .570000000000D+02 -.224687500000D+02  .472841124302D-08 -.514401420850D+00
    -.105984508991D-05  .165245903190D-02  .676512718201D-05  .515360637283D+04
     .158400000000D+06  .670552253723D-07  .269231193824D+01 -.223517417908D-07
     .966869863954D+00  .252718750000D+03 -.975217817257D+00 -.815605401810D-08
     .263225250103D-09  .100000000000D+01  .175100000000D+04  .000000000000D+00
     .240000000000D+01  .000000000000D+00 -.931322574615D-08  .570000000000D+02
     .151206000000D+06  .400000000000D+01
30 13  7 29 20  0  0.0 -.168540515006D-03  .113686837722D-11  .000000000000D+00
     .900000000000D+02 -.386562500000D+02  .534165107264D-08 -.239419209763D+01
    -.220537185669D-05  .638077023905D-02  .812113285065D-05  .515369461250D+04
     .158400000000D+06  .102445483208D-06  .160680835356D+01 -.558793544769D-07
     .978173075623D+00  .231031250000D+03  .885101081956D+00 -.776818071876D-08
     .266082511976D-09  .100000000000D+01  .175100000000D+04  .000000000000D+00
     .340000000000D+01  .630000000000D+02 -.190921127796D-07  .900000000000D+02
     .151206000000D+06  .400000000000D+01
31 13  7 29 20  0  0.0  .322054140270D-03  .102318153949D-11  .000000000000D+00
     .430000000000D+02 -.275937500000D+02  .410481383912D-08  .189314629669D+00
    -.144541263580D-05  .785624468699D-02  .522658228874D-05  .515363899994D+04
     .158400000000D+06  .614672899246D-07  .574020446941D+00 -.113621354103D-06
     .980330758368D+00  .285406250000D+03 -.735516340522D+00 -.815283959849D-08
    -.764317551180D-10  .100000000000D+01  .175100000000D+04  .000000000000D+00
     .240000000000D+01  .000000000000D+00 -.130385160446D-07  .430000000000D+02
     .151206000000D+06  .400000000000D+01
32 13  7 29 20  0  0.0 -.556876417249D-03  .125055521494D-11  .000000000000D+00
     .820000000000D+02  .390625000000D+02  .480770026001D-08  .663361320713D+00
     .191293656826D-05  .115723981289D-01  .876560807228D-05  .515363552856D+04
     .158400000000D+06  .257045030594D-06 -.145957238416D+01 -.335276126862D-07
     .948589887708D+00  .201625000000D+03 -.328921485677D+00 -.821284209784D-08
    -.155006456641D-09  .100000000000D+01  .175100000000D+04  .000000000000D+00
     .340000000000D+01  .000000000000D+00 -.279396772385D-08  .820000000000D+02
     .151206000000D+06  .400000000000D+01
32 13  7 29 19 59 44.0 -.556876882911D-03  .125055521494D-11  .000000000000D+00
     .100000000000D+01  .390625000000D+02  .480770026001D-08  .661027155920D+00
     .191107392311D-05  .115723916097D-01  .876374542713D-05  .515363554001D+04
     .158384000000D+06  .257045030594D-06 -.145957224518D+01 -.335276126862D-07
     .948589870153D+00  .201625000000D+03 -.328921181390D+00 -.821284209784D-08
    -.155363614375D-09  .100000000000D+01  .175100000000D+04  .000000000000D+00
     .240000000000D+01  .000000000000D+00 -.279396772385D-08  .100000000000D+01
     .152946000000D+06  .400000000000D+01
 3 13  7 29 19 59 44.0  .239113811404D-03  .500222085975D-11  .000000000000D+00
     .520000000000D+02 -.200937500000D+02  .530450666828D-08  .172248506188D+01
    -.130385160446D-05  .165780406678D-01  .692717730999D-05  .515371187592D+04
     .158384000000D+06 -.160187482834D-06  .249873352411D+01 -.450760126114D-06
     .935290433618D+00  .234093750000D+03  .131156515849D+01 -.836356266167D-08
     .323227749447D-09  .100000000000D+01  .175100000000D+04  .000000000000D+00
     .240000000000D+01  .000000000000D+00 -.465661287308D-08  .520000000000D+02
     .154476000000D+06  .400000000000D+01
28 13  7 29 19 59 44.0  .279822386801D-03  .318323145621D-11  .000000000000D+00
     .170000000000D+02 -.256875000000D+02  .388730477899D-08 -.252278765118D+01
    -.142119824886D-05  .186322185909D-01  .819191336632D-05  .515365051842D+04
     .158384000000D+06  .221654772758D-06  .165347040639D+01  .502914190292D-07
     .983682881540D+00  .227250000000D+03 -.176599864290D+01 -.744888170439D-08
     .342871424828D-09  .100000000000D+01  .175100000000D+04  .000000000000D+00
     .240000000000D+01  .000000000000D+00 -.107102096081D-07  .170000000000D+02
     .154626000000D+06  .400000000000D+01
27 13  7 29 19 59 44.0 -.171237625182D-04 -.488853402203D-11  .000000000000D+00
     .350000000000D+02 -.141875000000D+02  .477448459073D-08  .220469772361D+01
    -.681728124619D-06  .328343478031D-03  .689551234245D-05  .515366164780D+04
     .158384000000D+06 -.558793544769D-07  .263988568536D+01 -.223517417908D-07
     .960775399900D+00  .246187500000D+03  .871494419458D+00 -.810355183117D-08
     .277868717205D-09  .100000000000D+01  .175100000000D+04  .000000000000D+00
     .240000000000D+01  .000000000000D+00  .186264514923D-08  .350000000000D+02
     .156966000000D+06  .400000000000D+01
